OBJECT_NAME,OBJECT_ID,EPOCH,MEAN_MOTION,ECCENTRICITY,INCLINATION,RA_OF_ASC_NODE,ARG_OF_PERICENTER,MEAN_ANOMALY,EPHEMERIS_TYPE,CLASSIFICATION_TYPE,NORAD_CAT_ID,ELEMENT_SET_NO,REV_AT_EPOCH,BSTAR,MEAN_MOTION_DOT,MEAN_MOTION_DDOT
ONEWEB-0365,2021-090N,2026-06-06T15:33:21.481920,13.19725108,.00016882,87.9170,307.0661,97.8373,262.2951,0,U,49291,999,22503,-.48631585E-3,-.182E-5,0
ONEWEB-0366,2021-090P,2026-06-06T15:03:06.552288,13.14502616,.00019234,87.8957,291.8118,99.7225,260.4122,0,U,49292,999,22617,-.36371322E-3,-.122E-5,0
ONEWEB-0367,2021-090Q,2026-06-06T15:11:31.759872,13.20715594,.00004287,87.9195,276.5439,122.4243,237.6932,0,U,49293,999,22843,-.30693377E-1,-.12439E-3,0
ONEWEB-0368,2021-090R,2026-06-06T01:50:14.496288,13.20769887,.0001722,87.9178,276.6666,78.7428,281.3899,0,U,49294,999,22951,.13381E-3,.67E-6,0
ONEWEB-0369,2021-090S,2026-06-06T15:26:32.333856,13.19724559,.00016992,87.9156,307.0754,94.6590,265.4737,0,U,49295,999,22502,-.10792231E-4,.9E-7,0
ONEWEB-0370,2021-090T,2026-06-06T13:35:41.978112,13.20770912,.00019627,87.9191,276.5572,107.1065,253.0283,0,U,49296,999,22846,-.48873229E-3,-.186E-5,0
ONEWEB-0371,2021-090U,2026-06-06T15:37:53.994432,13.19724004,.00017253,87.9166,307.0654,99.8759,260.2569,0,U,49297,999,22506,-.17448308E-3,-.57E-6,0
ONEWEB-0372,2021-090V,2026-06-05T20:59:09.170016,13.20770945,.0001866,87.9190,276.6964,100.4956,259.6388,0,U,49298,999,22834,.29687E-4,.25E-6,0
ONEWEB-0373,2021-090W,2026-06-06T13:57:31.960224,13.20771541,.00020563,87.9199,276.5559,101.1316,259.0049,0,U,49299,999,22962,.36368865E-3,.161E-5,0
ONEWEB-0374,2021-090X,2026-06-06T14:44:50.981280,13.14502585,.00023226,87.8959,291.8046,88.7764,271.3631,0,U,49300,999,22617,.76040554E-4,.41E-6,0
ONEWEB-0375,2021-090Y,2026-06-06T13:40:34.339296,13.20771388,.00024193,87.9190,276.5497,92.4257,267.7153,0,U,49301,999,22912,.8693801E-5,.17E-6,0
ONEWEB-0376,2021-090Z,2026-06-06T15:35:37.834080,13.19724746,.00016456,87.9173,307.0654,96.7039,263.4281,0,U,49302,999,22506,.10646746E-3,.56E-6,0
ONEWEB-0377,2021-090AA,2026-06-06T13:21:22.970304,13.20772374,.00021454,87.9189,276.5545,100.8979,259.2396,0,U,49303,999,22911,.22281004E-3,.104E-5,0
ONEWEB-0378,2021-090AB,2026-06-06T13:50:26.599200,13.20770504,.00020009,87.9211,276.5559,97.1211,263.0150,0,U,49304,999,22838,-.3354099E-5,.12E-6,0
ONEWEB-0379,2021-090AC,2026-06-06T14:37:59.389824,13.14502162,.00019153,87.8958,291.8166,95.6854,264.4494,0,U,49305,999,22617,.2465092E-3,.104E-5,0
ONEWEB-0380,2021-090AD,2026-06-06T15:31:05.565216,13.19725471,.00020169,87.9161,307.0722,98.0493,262.0868,0,U,49306,999,22503,.68117022E-4,.4E-6,0
ONEWEB-0381,2021-090AE,2026-06-05T20:54:31.471776,13.20772907,.0002112,87.9188,276.6957,94.6552,265.4823,0,U,49307,999,22833,.18295E-3,.87E-6,0
ONEWEB-0382,2021-090AF,2026-06-06T14:45:59.535360,13.20771148,.00020802,87.9190,276.5419,92.4491,267.6881,0,U,49308,999,22842,-.4653461E-3,-.176E-5,0
ONEWEB-0383,2021-090AG,2026-06-06T14:28:50.240064,13.14504736,.00018756,87.8966,291.8089,94.5905,265.5439,0,U,49309,999,22620,.6634776E-3,.259E-5,0
ONEWEB-0384,2021-090AH,2026-06-06T14:30:07.660512,13.20811790,.00021467,87.9191,276.5877,87.9359,272.2021,0,U,49310,999,22843,.15927108E-3,.78E-6,0
ONEWEB-0385,2021-090AJ,2026-06-06T14:36:20.104992,13.20772090,.000205,87.9189,276.5485,95.2785,264.8582,0,U,49311,999,22840,.88922632E-4,.49E-6,0
ONEWEB-0386,2021-090AK,2026-06-06T09:33:18.140832,13.20771571,.00020088,87.9186,276.5803,94.0185,266.1178,0,U,49312,999,22839,-.41431023E-3,-.155E-5,0
ONEWEB-0387,2021-090AL,2026-06-06T01:55:07.764672,13.20772586,.0002297,87.9178,276.6680,100.3150,259.8242,0,U,49313,999,22835,-.30076E-3,-.109E-5,0
ONEWEB-0388,2021-090AM,2026-06-06T15:24:16.273728,13.19724525,.00018568,87.9160,307.0711,92.7147,267.4198,0,U,49314,999,22502,-.21510901E-3,-.73E-6,0
ONEWEB-0389,2021-132A,2026-06-06T11:48:03.880512,13.17647486,.00022138,87.9141,7.9961,85.7454,274.3930,0,U,50469,999,21667,-.57558131E-4,-.9E-7,0
ONEWEB-0390,2021-132B,2026-06-06T11:50:29.671872,13.17647142,.00018639,87.9140,7.9966,94.3253,265.8092,0,U,50470,999,21667,-.12919414E-3,-.37E-6,0
ONEWEB-0391,2021-132C,2026-06-06T11:52:55.519392,13.17647553,.00026474,87.9143,8.0059,93.0790,267.0644,0,U,50471,999,21667,-.10414093E-4,.9E-7,0
ONEWEB-0392,2021-132D,2026-06-06T12:36:40.557024,13.17649719,.00021575,87.9170,7.9666,91.4757,268.6621,0,U,50472,999,21671,-.24946765E-3,-.84E-6,0
ONEWEB-0393,2021-132E,2026-06-06T12:01:26.563296,13.17649184,.00020261,87.9143,7.9901,86.6859,273.4504,0,U,50473,999,21670,.45741782E-4,.31E-6,0
ONEWEB-0394,2021-132F,2026-06-06T11:24:33.369408,13.18684646,.00020473,87.9167,337.5741,86.3121,273.8245,0,U,50474,999,22018,-.24212387E-3,-.83E-6,0
