ONEWEB-0365             
1 49291U 21090N   26157.64816530 -.00000182  00000+0 -48632-3 0  9999
2 49291  87.9170 307.0661 0001688  97.8373 262.2951 13.19725108225038
ONEWEB-0366             
1 49292U 21090P   26157.62715917 -.00000122  00000+0 -36371-3 0  9996
2 49292  87.8957 291.8118 0001923  99.7225 260.4122 13.14502616226175
ONEWEB-0367             
1 49293U 21090Q   26157.63300648 -.00012439  00000+0 -30693-1 0  9992
2 49293  87.9195 276.5439 0000428 122.4243 237.6932 13.20715594228434
ONEWEB-0368             
1 49294U 21090R   26157.07655667  .00000067  00000+0  13381-3 0  9994
2 49294  87.9178 276.6666 0001722  78.7428 281.3899 13.20769887229517
ONEWEB-0369             
1 49295U 21090S   26157.64342979  .00000009  00000+0 -10792-4 0  9998
2 49295  87.9156 307.0754 0001699  94.6590 265.4737 13.19724559225022
ONEWEB-0370             
1 49296U 21090T   26157.56645808 -.00000186  00000+0 -48873-3 0  9994
2 49296  87.9191 276.5572 0001962 107.1065 253.0283 13.20770912228466
ONEWEB-0371             
1 49297U 21090U   26157.65131938 -.00000057  00000+0 -17448-3 0  9990
2 49297  87.9166 307.0654 0001725  99.8759 260.2569 13.19724004225063
ONEWEB-0372             
1 49298U 21090V   26156.87441169  .00000025  00000+0  29687-4 0  9996
2 49298  87.9190 276.6964 0001866 100.4956 259.6388 13.20770945228342
ONEWEB-0373             
1 49299U 21090W   26157.58161991  .00000161  00000+0  36369-3 0  9993
2 49299  87.9199 276.5559 0002056 101.1316 259.0049 13.20771541229624
ONEWEB-0374             
1 49300U 21090X   26157.61447895  .00000041  00000+0  76041-4 0  9999
2 49300  87.8959 291.8046 0002322  88.7764 271.3631 13.14502585226178
ONEWEB-0375             
1 49301U 21090Y   26157.56984189  .00000017  00000+0  86938-5 0  9996
2 49301  87.9190 276.5497 0002419  92.4257 267.7153 13.20771388229125
ONEWEB-0376             
1 49302U 21090Z   26157.64974345  .00000056  00000+0  10647-3 0  9994
2 49302  87.9173 307.0654 0001645  96.7039 263.4281 13.19724746225065
ONEWEB-0377             
1 49303U 21090AA  26157.55651586  .00000104  00000+0  22281-3 0  9995
2 49303  87.9189 276.5545 0002145 100.8979 259.2396 13.20772374229110
ONEWEB-0378             
1 49304U 21090AB  26157.57669675  .00000012  00000+0 -33541-5 0  9998
2 49304  87.9211 276.5559 0002000  97.1211 263.0150 13.20770504228381
ONEWEB-0379             
1 49305U 21090AC  26157.60971516  .00000104  00000+0  24651-3 0  9994
2 49305  87.8958 291.8166 0001915  95.6854 264.4494 13.14502162226170
ONEWEB-0380             
1 49306U 21090AD  26157.64659219  .00000040  00000+0  68117-4 0  9997
2 49306  87.9161 307.0722 0002016  98.0493 262.0868 13.19725471225033
ONEWEB-0381             
1 49307U 21090AE  26156.87119759  .00000087  00000+0  18295-3 0  9994
2 49307  87.9188 276.6957 0002112  94.6552 265.4823 13.20772907228331
ONEWEB-0382             
1 49308U 21090AF  26157.61527240 -.00000176  00000+0 -46535-3 0  9995
2 49308  87.9190 276.5419 0002080  92.4491 267.6881 13.20771148228423
ONEWEB-0383             
1 49309U 21090AG  26157.60335926  .00000259  00000+0  66348-3 0  9997
2 49309  87.8966 291.8089 0001875  94.5905 265.5439 13.14504736226201
ONEWEB-0384             
1 49310U 21090AH  26157.60425533  .00000078  00000+0  15927-3 0  9999
2 49310  87.9191 276.5877 0002146  87.9359 272.2021 13.20811790228437
ONEWEB-0385             
1 49311U 21090AJ  26157.60856603  .00000049  00000+0  88923-4 0  9991
2 49311  87.9189 276.5485 0002050  95.2785 264.8582 13.20772090228404
ONEWEB-0386             
1 49312U 21090AK  26157.39812663 -.00000155  00000+0 -41431-3 0  9998
2 49312  87.9186 276.5803 0002008  94.0185 266.1178 13.20771571228397
ONEWEB-0387             
1 49313U 21090AL  26157.07995098 -.00000109  00000+0 -30076-3 0  9990
2 49313  87.9178 276.6680 0002297 100.3150 259.8242 13.20772586228350
ONEWEB-0388             
1 49314U 21090AM  26157.64185502 -.00000073  00000+0 -21511-3 0  9999
2 49314  87.9160 307.0711 0001856  92.7147 267.4198 13.19724525225020
ONEWEB-0389             
1 50469U 21132A   26157.49171158 -.00000009  00000+0 -57558-4 0  9994
2 50469  87.9141   7.9961 0002213  85.7454 274.3930 13.17647486216676
ONEWEB-0390             
1 50470U 21132B   26157.49339898 -.00000037  00000+0 -12919-3 0  9995
2 50470  87.9140   7.9966 0001863  94.3253 265.8092 13.17647142216678
ONEWEB-0391             
1 50471U 21132C   26157.49508703  .00000009  00000+0 -10414-4 0  9996
2 50471  87.9143   8.0059 0002647  93.0790 267.0644 13.17647553216673
ONEWEB-0392             
1 50472U 21132D   26157.52546941 -.00000084  00000+0 -24947-3 0  9996
2 50472  87.9170   7.9666 0002157  91.4757 268.6621 13.17649719216710
ONEWEB-0393             
1 50473U 21132E   26157.50100189  .00000031  00000+0  45742-4 0  9992
2 50473  87.9143   7.9901 0002026  86.6859 273.4504 13.17649184216706
ONEWEB-0394             
1 50474U 21132F   26157.47538622 -.00000083  00000+0 -24212-3 0  9993
2 50474  87.9167 337.5741 0002047  86.3121 273.8245 13.18684646220185
